{
  "type": "FeatureCollection",
  "features": [
    {
      "type": "Feature",
      "properties": {
        "norad_id": 29937,
        "name": "FENGYUN 1C DEB",
        "group": "fengyun-1c-debris",
        "lat": -69.09190599572172,
        "lon": 169.20901363567228,
        "alt_km": 895.9338644894842,
        "timestamp": "2025-12-18T07:01:54.862151+00:00",
        "meta_object_name": "FENGYUN 1C DEB",
        "meta_object_id": "1999-025JK",
        "meta_epoch": "2025-12-17T21:51:14.256288",
        "meta_mean_motion": 14.04361075,
        "meta_eccentricity": 0.00321899,
        "meta_inclination": 98.8023,
        "meta_ra_of_asc_node": 12.7667,
        "meta_arg_of_pericenter": 7.398,
        "meta_mean_anomaly": 111.5537,
        "meta_ephemeris_type": 0,
        "meta_classification_type": "U",
        "meta_norad_cat_id": 29937,
        "meta_element_set_no": 999,
        "meta_rev_at_epoch": 97008,
        "meta_bstar": -6.9019781e-05,
        "meta_mean_motion_dot": -1.53e-06,
        "meta_mean_motion_ddot": 0,
        "tle_line1": "1 29937U 99025JK  25351.91058167 -.00000153  00000+0 -69020-4 0  9999",
        "tle_line2": "2 29937  98.8023  12.7667 0032189   7.3980 111.5537 14.04361075970089"
      },
      "geometry": {
        "type": "Point",
        "coordinates": [
          169.20901363567228,
          -69.09190599572172
        ]
      }
    },
    {
      "type": "Feature",
      "properties": {
        "norad_id": 29938,
        "name": "FENGYUN 1C DEB",
        "group": "fengyun-1c-debris",
        "lat": -57.57012491851753,
        "lon": 148.0475871577368,
        "alt_km": 861.8878802644194,
        "timestamp": "2025-12-18T07:01:54.862162+00:00",
        "meta_object_name": "FENGYUN 1C DEB",
        "meta_object_id": "1999-025JL",
        "meta_epoch": "2025-12-17T21:38:35.458656",
        "meta_mean_motion": 14.07462154,
        "meta_eccentricity": 0.00326894,
        "meta_inclination": 98.8024,
        "meta_ra_of_asc_node": 341.7821,
        "meta_arg_of_pericenter": 295.904,
        "meta_mean_anomaly": 121.9632,
        "meta_ephemeris_type": 0,
        "meta_classification_type": "U",
        "meta_norad_cat_id": 29938,
        "meta_element_set_no": 999,
        "meta_rev_at_epoch": 97129,
        "meta_bstar": 0.00016452245,
        "meta_mean_motion_dot": 2.35e-06,
        "meta_mean_motion_ddot": 0,
        "tle_line1": "1 29938U 99025JL  25351.90179929  .00000235  00000+0  16452-3 0  9998",
        "tle_line2": "2 29938  98.8024 341.7821 0032689 295.9040 121.9632 14.07462154971293"
      },
      "geometry": {
        "type": "Point",
        "coordinates": [
          148.0475871577368,
          -57.57012491851753
        ]
      }
    },
    {
      "type": "Feature",
      "properties": {
        "norad_id": 29939,
        "name": "FENGYUN 1C DEB",
        "group": "fengyun-1c-debris",
        "lat": -37.9635235376725,
        "lon": -1.4088611839417606,
        "alt_km": 904.5740905249122,
        "timestamp": "2025-12-18T07:01:54.862172+00:00",
        "meta_object_name": "FENGYUN 1C DEB",
        "meta_object_id": "1999-025JM",
        "meta_epoch": "2025-12-17T21:19:02.390304",
        "meta_mean_motion": 14.12085867,
        "meta_eccentricity": 0.00671545,
        "meta_inclination": 98.7097,
        "meta_ra_of_asc_node": 351.3285,
        "meta_arg_of_pericenter": 124.088,
        "meta_mean_anomaly": 301.2478,
        "meta_ephemeris_type": 0,
        "meta_classification_type": "U",
        "meta_norad_cat_id": 29939,
        "meta_element_set_no": 999,
        "meta_rev_at_epoch": 97533,
        "meta_bstar": 5.807903e-05,
        "meta_mean_motion_dot": 6.7e-07,
        "meta_mean_motion_ddot": 0,
        "tle_line1": "1 29939U 99025JM  25351.88822211  .00000067  00000+0  58079-4 0  9990",
        "tle_line2": "2 29939  98.7097 351.3285 0067154 124.0880 301.2478 14.12085867975331"
      },
      "geometry": {
        "type": "Point",
        "coordinates": [
          -1.4088611839417606,
          -37.9635235376725
        ]
      }
    },
    {
      "type": "Feature",
      "properties": {
        "norad_id": 29940,
        "name": "FENGYUN 1C DEB",
        "group": "fengyun-1c-debris",
        "lat": -77.36163321396383,
        "lon": 139.2427072906919,
        "alt_km": 890.3606941030594,
        "timestamp": "2025-12-18T07:01:54.862182+00:00",
        "meta_object_name": "FENGYUN 1C DEB",
        "meta_object_id": "1999-025JN",
        "meta_epoch": "2025-12-17T06:24:07.255296",
        "meta_mean_motion": 14.18832702,
        "meta_eccentricity": 0.00746874,
        "meta_inclination": 98.6211,
        "meta_ra_of_asc_node": 0.8217,
        "meta_arg_of_pericenter": 86.9456,
        "meta_mean_anomaly": 334.8126,
        "meta_ephemeris_type": 0,
        "meta_classification_type": "U",
        "meta_norad_cat_id": 29940,
        "meta_element_set_no": 999,
        "meta_rev_at_epoch": 97552,
        "meta_bstar": 0.00053015796,
        "meta_mean_motion_dot": 1.092e-05,
        "meta_mean_motion_ddot": 0,
        "tle_line1": "1 29940U 99025JN  25351.26675064  .00001092  00000+0  53016-3 0  9990",
        "tle_line2": "2 29940  98.6211   0.8217 0074687  86.9456 334.8126 14.18832702975522"
      },
      "geometry": {
        "type": "Point",
        "coordinates": [
          139.2427072906919,
          -77.36163321396383
        ]
      }
    },
    {
      "type": "Feature",
      "properties": {
        "norad_id": 29942,
        "name": "FENGYUN 1C DEB",
        "group": "fengyun-1c-debris",
        "lat": -6.211782998633883,
        "lon": 59.039836910837764,
        "alt_km": 796.4945083297689,
        "timestamp": "2025-12-18T07:01:54.862192+00:00",
        "meta_object_name": "FENGYUN 1C DEB",
        "meta_object_id": "1999-025JQ",
        "meta_epoch": "2025-12-17T17:37:51.759840",
        "meta_mean_motion": 14.30430426,
        "meta_eccentricity": 0.00489674,
        "meta_inclination": 98.6371,
        "meta_ra_of_asc_node": 57.5376,
        "meta_arg_of_pericenter": 261.1064,
        "meta_mean_anomaly": 98.4573,
        "meta_ephemeris_type": 0,
        "meta_classification_type": "U",
        "meta_norad_cat_id": 29942,
        "meta_element_set_no": 999,
        "meta_rev_at_epoch": 97940,
        "meta_bstar": 0.00054677426,
        "meta_mean_motion_dot": 1.397e-05,
        "meta_mean_motion_ddot": 0,
        "tle_line1": "1 29942U 99025JQ  25351.73462685  .00001397  00000+0  54677-3 0  9999",
        "tle_line2": "2 29942  98.6371  57.5376 0048967 261.1064  98.4573 14.30430426979401"
      },
      "geometry": {
        "type": "Point",
        "coordinates": [
          59.039836910837764,
          -6.211782998633883
        ]
      }
    },
    {
      "type": "Feature",
      "properties": {
        "norad_id": 29943,
        "name": "FENGYUN 1C DEB",
        "group": "fengyun-1c-debris",
        "lat": -66.94352596329996,
        "lon": 158.72742182112648,
        "alt_km": 847.5334220221539,
        "timestamp": "2025-12-18T07:01:54.862203+00:00",
        "meta_object_name": "FENGYUN 1C DEB",
        "meta_object_id": "1999-025JR",
        "meta_epoch": "2025-12-17T21:38:35.513088",
        "meta_mean_motion": 14.09672139,
        "meta_eccentricity": 0.00350749,
        "meta_inclination": 98.7266,
        "meta_ra_of_asc_node": 359.5009,
        "meta_arg_of_pericenter": 212.1214,
        "meta_mean_anomaly": 212.0216,
        "meta_ephemeris_type": 0,
        "meta_classification_type": "U",
        "meta_norad_cat_id": 29943,
        "meta_element_set_no": 999,
        "meta_rev_at_epoch": 97379,
        "meta_bstar": 9.8281524e-05,
        "meta_mean_motion_dot": 1.31e-06,
        "meta_mean_motion_ddot": 0,
        "tle_line1": "1 29943U 99025JR  25351.90179992  .00000131  00000+0  98282-4 0  9991",
        "tle_line2": "2 29943  98.7266 359.5009 0035074 212.1214 212.0216 14.09672139973791"
      },
      "geometry": {
        "type": "Point",
        "coordinates": [
          158.72742182112648,
          -66.94352596329996
        ]
      }
    },
    {
      "type": "Feature",
      "properties": {
        "norad_id": 29944,
        "name": "FENGYUN 1C DEB",
        "group": "fengyun-1c-debris",
        "lat": 8.351716603316065,
        "lon": 108.45308981661577,
        "alt_km": 521.0760143307607,
        "timestamp": "2025-12-18T07:01:54.862213+00:00",
        "meta_object_name": "FENGYUN 1C DEB",
        "meta_object_id": "1999-025JS",
        "meta_epoch": "2025-12-17T18:57:10.307232",
        "meta_mean_motion": 14.87594871,
        "meta_eccentricity": 0.01664422,
        "meta_inclination": 99.0042,
        "meta_ra_of_asc_node": 286.5484,
        "meta_arg_of_pericenter": 215.8094,
        "meta_mean_anomaly": 143.1869,
        "meta_ephemeris_type": 0,
        "meta_classification_type": "U",
        "meta_norad_cat_id": 29944,
        "meta_element_set_no": 999,
        "meta_rev_at_epoch": 529,
        "meta_bstar": 0.00052437851,
        "meta_mean_motion_dot": 6.074e-05,
        "meta_mean_motion_ddot": 0,
        "tle_line1": "1 29944U 99025JS  25351.78970263  .00006074  00000+0  52438-3 0  9992",
        "tle_line2": "2 29944  99.0042 286.5484 0166442 215.8094 143.1869 14.87594871  5295"
      },
      "geometry": {
        "type": "Point",
        "coordinates": [
          108.45308981661577,
          8.351716603316065
        ]
      }
    }
  ]
}